STARLINK-31781          
1 59632U 24082B   26066.54655708  .00000785  00000+0  38042-4 0  9991
2 59632  42.9984 137.8007 0000693 305.3740  54.7047 15.27587796104682
STARLINK-31541          
1 59633U 24082C   26066.26738833  .00004932  00000+0  18866-3 0  9991
2 59633  43.0029 146.3730 0001248 246.0801 113.9920 15.27574696104716
STARLINK-31797          
1 59634U 24082D   26066.27541218  .00003599  00000+0  14025-3 0  9993
2 59634  42.9971 153.3632 0000858 230.0942 129.9835 15.27578072104483
STARLINK-31798          
1 59635U 24082E   26066.50369561  .00002856  00000+0  11327-3 0  9996
2 59635  43.0021 152.4959 0001239 257.6882 102.3831 15.27582168104477
STARLINK-31802          
1 59636U 24082F   26066.23444975  .00000265  00000+0  19137-4 0  9990
2 59636  43.0046 153.9183 0000868 247.2342 112.8418 15.27581873104438
STARLINK-31791          
1 59637U 24082G   26066.59078759  .00001245  00000+0  54737-4 0  9997
2 59637  42.9914 151.4228 0000729 141.6901 218.4002 15.27577505104493
STARLINK-31727          
1 59638U 24082H   26066.50754951  .00002680  00000+0  10685-3 0  9991
2 59638  43.0048 152.5245 0001272 282.0592  78.0117 15.27589240104525
STARLINK-31807          
1 59639U 24082J   26066.49985731  .00002059  00000+0  84398-4 0  9995
2 59639  43.0064 152.4723 0001986 287.0825  72.9809 15.27559133104473
STARLINK-31806          
1 59640U 24082K   26066.61262873  .00001186  00000+0  52618-4 0  9996
2 59640  42.9999 151.5958 0000746 227.1595 132.9194 15.27574607104491
STARLINK-31804          
1 59641U 24082L   26066.58692406  .00001540  00000+0  65439-4 0  9991
2 59641  42.9991 151.3974 0000952 260.7628  99.3116 15.27587627104495
STARLINK-31660          
1 59642U 24082M   26066.42393917  .00000739  00000+0  36381-4 0  9993
2 59642  43.0035 112.2346 0002791 318.4997  41.5643 15.27596175105122
STARLINK-31800          
1 59643U 24082N   26066.29725766  .00004276  00000+0  16483-3 0  9990
2 59643  43.0040 153.5107 0001418 254.8772 105.1922 15.27575060104543
STARLINK-31789          
1 59644U 24082P   26066.59849218  .00047484  00000+0  17217-2 0  9996
2 59644  43.0001 151.4868 0001836 273.0407  87.0235 15.27622188104699
STARLINK-31795          
1 59645U 24082Q   26066.35825831  .00000690  00000+0  34566-4 0  9992
2 59645  43.0001  94.4017 0000743 276.5199  83.5568 15.27582962105128
STARLINK-31796          
1 59646U 24082R   26066.27799053  .00000996  00000+0  45722-4 0  9995
2 59646  43.0067 153.3876 0002802 296.7143  63.3422 15.27581758104609
STARLINK-31801          
1 59647U 24082S   26066.57679787  .00002930  00000+0  11598-3 0  9993
2 59647  43.0013 152.1796 0001657 272.5389  87.5273 15.27573915104530
