[{"OBJECT_NAME":"STARLINK-31781","OBJECT_ID":"2024-082B","EPOCH":"2026-03-07T13:07:02.531712","MEAN_MOTION":15.27587796,"ECCENTRICITY":6.935e-5,"INCLINATION":42.9984,"RA_OF_ASC_NODE":137.8007,"ARG_OF_PERICENTER":305.374,"MEAN_ANOMALY":54.7047,"EPHEMERIS_TYPE":0,"CLASSIFICATION_TYPE":"U","NORAD_CAT_ID":59632,"ELEMENT_SET_NO":999,"REV_AT_EPOCH":10468,"BSTAR":3.804244e-5,"MEAN_MOTION_DOT":7.85e-6,"MEAN_MOTION_DDOT":0},{"OBJECT_NAME":"STARLINK-31541","OBJECT_ID":"2024-082C","EPOCH":"2026-03-07T06:25:02.351712","MEAN_MOTION":15.27574696,"ECCENTRICITY":0.0001248,"INCLINATION":43.0029,"RA_OF_ASC_NODE":146.373,"ARG_OF_PERICENTER":246.0801,"MEAN_ANOMALY":113.992,"EPHEMERIS_TYPE":0,"CLASSIFICATION_TYPE":"U","NORAD_CAT_ID":59633,"ELEMENT_SET_NO":999,"REV_AT_EPOCH":10471,"BSTAR":0.00018866,"MEAN_MOTION_DOT":4.932e-5,"MEAN_MOTION_DDOT":0},{"OBJECT_NAME":"STARLINK-31797","OBJECT_ID":"2024-082D","EPOCH":"2026-03-07T06:36:35.612352","MEAN_MOTION":15.27578072,"ECCENTRICITY":8.58e-5,"INCLINATION":42.9971,"RA_OF_ASC_NODE":153.3632,"ARG_OF_PERICENTER":230.0942,"MEAN_ANOMALY":129.9835,"EPHEMERIS_TYPE":0,"CLASSIFICATION_TYPE":"U","NORAD_CAT_ID":59634,"ELEMENT_SET_NO":999,"REV_AT_EPOCH":10448,"BSTAR":0.00014025,"MEAN_MOTION_DOT":3.599e-5,"MEAN_MOTION_DDOT":0},{"OBJECT_NAME":"STARLINK-31798","OBJECT_ID":"2024-082E","EPOCH":"2026-03-07T12:05:19.300704","MEAN_MOTION":15.27582168,"ECCENTRICITY":0.00012393,"INCLINATION":43.0021,"RA_OF_ASC_NODE":152.4959,"ARG_OF_PERICENTER":257.6882,"MEAN_ANOMALY":102.3831,"EPHEMERIS_TYPE":0,"CLASSIFICATION_TYPE":"U","NORAD_CAT_ID":59635,"ELEMENT_SET_NO":999,"REV_AT_EPOCH":10447,"BSTAR":0.00011327344,"MEAN_MOTION_DOT":2.856e-5,"MEAN_MOTION_DDOT":0},{"OBJECT_NAME":"STARLINK-31802","OBJECT_ID":"2024-082F","EPOCH":"2026-03-07T05:37:36.458400","MEAN_MOTION":15.27581873,"ECCENTRICITY":8.68e-5,"INCLINATION":43.0046,"RA_OF_ASC_NODE":153.9183,"ARG_OF_PERICENTER":247.2342,"MEAN_ANOMALY":112.8418,"EPHEMERIS_TYPE":0,"CLASSIFICATION_TYPE":"U","NORAD_CAT_ID":59636,"ELEMENT_SET_NO":999,"REV_AT_EPOCH":10443,"BSTAR":1.9137e-5,"MEAN_MOTION_DOT":2.65e-6,"MEAN_MOTION_DDOT":0},{"OBJECT_NAME":"STARLINK-31791","OBJECT_ID":"2024-082G","EPOCH":"2026-03-07T14:10:44.047776","MEAN_MOTION":15.27577505,"ECCENTRICITY":7.293e-5,"INCLINATION":42.9914,"RA_OF_ASC_NODE":151.4228,"ARG_OF_PERICENTER":141.6901,"MEAN_ANOMALY":218.4002,"EPHEMERIS_TYPE":0,"CLASSIFICATION_TYPE":"U","NORAD_CAT_ID":59637,"ELEMENT_SET_NO":999,"REV_AT_EPOCH":10449,"BSTAR":5.4737481e-5,"MEAN_MOTION_DOT":1.245e-5,"MEAN_MOTION_DDOT":0},{"OBJECT_NAME":"STARLINK-31727","OBJECT_ID":"2024-082H","EPOCH":"2026-03-07T12:10:52.277664","MEAN_MOTION":15.2758924,"ECCENTRICITY":0.0001272,"INCLINATION":43.0048,"RA_OF_ASC_NODE":152.5245,"ARG_OF_PERICENTER":282.0592,"MEAN_ANOMALY":78.0117,"EPHEMERIS_TYPE":0,"CLASSIFICATION_TYPE":"U","NORAD_CAT_ID":59638,"ELEMENT_SET_NO":999,"REV_AT_EPOCH":10452,"BSTAR":0.00010685194,"MEAN_MOTION_DOT":2.68e-5,"MEAN_MOTION_DDOT":0},{"OBJECT_NAME":"STARLINK-31807","OBJECT_ID":"2024-082J","EPOCH":"2026-03-07T11:59:47.671584","MEAN_MOTION":15.27559133,"ECCENTRICITY":0.0001986,"INCLINATION":43.0064,"RA_OF_ASC_NODE":152.4723,"ARG_OF_PERICENTER":287.0825,"MEAN_ANOMALY":72.9809,"EPHEMERIS_TYPE":0,"CLASSIFICATION_TYPE":"U","NORAD_CAT_ID":59639,"ELEMENT_SET_NO":999,"REV_AT_EPOCH":10447,"BSTAR":8.4397987e-5,"MEAN_MOTION_DOT":2.059e-5,"MEAN_MOTION_DDOT":0},{"OBJECT_NAME":"STARLINK-31806","OBJECT_ID":"2024-082K","EPOCH":"2026-03-07T14:42:11.122272","MEAN_MOTION":15.27574607,"ECCENTRICITY":7.462e-5,"INCLINATION":42.9999,"RA_OF_ASC_NODE":151.5958,"ARG_OF_PERICENTER":227.1595,"MEAN_ANOMALY":132.9194,"EPHEMERIS_TYPE":0,"CLASSIFICATION_TYPE":"U","NORAD_CAT_ID":59640,"ELEMENT_SET_NO":999,"REV_AT_EPOCH":10449,"BSTAR":5.2617877e-5,"MEAN_MOTION_DOT":1.186e-5,"MEAN_MOTION_DDOT":0},{"OBJECT_NAME":"STARLINK-31804","OBJECT_ID":"2024-082L","EPOCH":"2026-03-07T14:05:10.238784","MEAN_MOTION":15.27587627,"ECCENTRICITY":9.523e-5,"INCLINATION":42.9991,"RA_OF_ASC_NODE":151.3974,"ARG_OF_PERICENTER":260.7628,"MEAN_ANOMALY":99.3116,"EPHEMERIS_TYPE":0,"CLASSIFICATION_TYPE":"U","NORAD_CAT_ID":59641,"ELEMENT_SET_NO":999,"REV_AT_EPOCH":10449,"BSTAR":6.5439433e-5,"MEAN_MOTION_DOT":1.54e-5,"MEAN_MOTION_DDOT":0},{"OBJECT_NAME":"STARLINK-31660","OBJECT_ID":"2024-082M","EPOCH":"2026-03-07T10:10:28.344288","MEAN_MOTION":15.27596175,"ECCENTRICITY":0.00027919,"INCLINATION":43.0035,"RA_OF_ASC_NODE":112.2346,"ARG_OF_PERICENTER":318.4997,"MEAN_ANOMALY":41.5643,"EPHEMERIS_TYPE":0,"CLASSIFICATION_TYPE":"U","NORAD_CAT_ID":59642,"ELEMENT_SET_NO":999,"REV_AT_EPOCH":10512,"BSTAR":3.6381209e-5,"MEAN_MOTION_DOT":7.39e-6,"MEAN_MOTION_DDOT":0},{"OBJECT_NAME":"STARLINK-31800","OBJECT_ID":"2024-082N","EPOCH":"2026-03-07T07:08:03.061824","MEAN_MOTION":15.2757506,"ECCENTRICITY":0.0001418,"INCLINATION":43.004,"RA_OF_ASC_NODE":153.5107,"ARG_OF_PERICENTER":254.8772,"MEAN_ANOMALY":105.1922,"EPHEMERIS_TYPE":0,"CLASSIFICATION_TYPE":"U","NORAD_CAT_ID":59643,"ELEMENT_SET_NO":999,"REV_AT_EPOCH":10454,"BSTAR":0.00016483,"MEAN_MOTION_DOT":4.276e-5,"MEAN_MOTION_DDOT":0},{"OBJECT_NAME":"STARLINK-31789","OBJECT_ID":"2024-082P","EPOCH":"2026-03-07T14:21:49.724352","MEAN_MOTION":15.27622188,"ECCENTRICITY":0.0001836,"INCLINATION":43.0001,"RA_OF_ASC_NODE":151.4868,"ARG_OF_PERICENTER":273.0407,"MEAN_ANOMALY":87.0235,"EPHEMERIS_TYPE":0,"CLASSIFICATION_TYPE":"U","NORAD_CAT_ID":59644,"ELEMENT_SET_NO":999,"REV_AT_EPOCH":10469,"BSTAR":0.0017217269,"MEAN_MOTION_DOT":0.00047484,"MEAN_MOTION_DDOT":0},{"OBJECT_NAME":"STARLINK-31795","OBJECT_ID":"2024-082Q","EPOCH":"2026-03-07T08:35:53.517984","MEAN_MOTION":15.27582962,"ECCENTRICITY":7.437e-5,"INCLINATION":43.0001,"RA_OF_ASC_NODE":94.4017,"ARG_OF_PERICENTER":276.5199,"MEAN_ANOMALY":83.5568,"EPHEMERIS_TYPE":0,"CLASSIFICATION_TYPE":"U","NORAD_CAT_ID":59645,"ELEMENT_SET_NO":999,"REV_AT_EPOCH":10512,"BSTAR":3.4565813e-5,"MEAN_MOTION_DOT":6.9e-6,"MEAN_MOTION_DDOT":0},{"OBJECT_NAME":"STARLINK-31796","OBJECT_ID":"2024-082R","EPOCH":"2026-03-07T06:40:18.381792","MEAN_MOTION":15.27581758,"ECCENTRICITY":0.0002802,"INCLINATION":43.0067,"RA_OF_ASC_NODE":153.3876,"ARG_OF_PERICENTER":296.7143,"MEAN_ANOMALY":63.3422,"EPHEMERIS_TYPE":0,"CLASSIFICATION_TYPE":"U","NORAD_CAT_ID":59646,"ELEMENT_SET_NO":999,"REV_AT_EPOCH":10460,"BSTAR":4.5722e-5,"MEAN_MOTION_DOT":9.96e-6,"MEAN_MOTION_DDOT":0},{"OBJECT_NAME":"STARLINK-31801","OBJECT_ID":"2024-082S","EPOCH":"2026-03-07T13:50:35.335968","MEAN_MOTION":15.27573915,"ECCENTRICITY":0.00016574,"INCLINATION":43.0013,"RA_OF_ASC_NODE":152.1796,"ARG_OF_PERICENTER":272.5389,"MEAN_ANOMALY":87.5273,"EPHEMERIS_TYPE":0,"CLASSIFICATION_TYPE":"U","NORAD_CAT_ID":59647,"ELEMENT_SET_NO":999,"REV_AT_EPOCH":10453,"BSTAR":0.00011597876,"MEAN_MOTION_DOT":2.93e-5,"MEAN_MOTION_DDOT":0}]
